     2.100          NAVIGATION                              RINEX VERSION / TYPE
fic2rin                                 10/12/2017 00:06:01 PGM / RUN BY / DATE
                                                            END OF HEADER
27 17 10 11 20  0  0.0  .335941091180D-03  .443378667114D-11  .000000000000D+00
     .142000000000D+03 -.734375000000D+02  .421517557898D-08  .110981272178D+01
    -.385753810406D-05  .496530055534D-02  .499933958054D-05  .515367548370D+04
     .331200000000D+06 -.447034835815D-07  .328240535347D+00  .949949026108D-07
     .976159547363D+00  .291437500000D+03  .385661478749D+00 -.818748389871D-08
    -.124648049234D-09  .100000000000D+01  .197000000000D+04  .000000000000D+00
     .240000000000D+01  .000000000000D+00  .139698386192D-08  .142000000000D+03
     .324006000000D+06  .400000000000D+01
28 17 10 11 20  0  0.0  .653213355690D-03  .318323145621D-11  .000000000000D+00
     .490000000000D+02  .455625000000D+02  .382873091058D-08  .198508840704D+01
     .210292637348D-05  .199144097278D-01  .478886067867D-05  .515366069031D+04
     .331200000000D+06  .266358256340D-06 -.630620503121D+00 -.229105353355D-06
     .987721793549D+00  .295250000000D+03 -.156158382109D+01 -.774317967737D-08
     .653598653579D-10  .100000000000D+01  .197000000000D+04  .000000000000D+00
     .240000000000D+01  .000000000000D+00 -.111758708954D-07  .490000000000D+02
     .324006000000D+06  .400000000000D+01
29 17 10 11 20  0  0.0  .552312470973D-03 -.477484718431D-11  .000000000000D+00
     .520000000000D+02 -.719375000000D+02  .400159525393D-08  .237999777363D+01
    -.372156500816D-05  .449708430097D-03  .576488673687D-05  .515355497551D+04
     .331200000000D+06 -.149011611938D-07  .391265420518D+00 -.931322574615D-08
     .982473256023D+00  .278125000000D+03  .896148636988D+00 -.798211820155D-08
    -.139291516336D-10  .100000000000D+01  .197000000000D+04  .000000000000D+00
     .240000000000D+01  .000000000000D+00 -.102445483208D-07  .520000000000D+02
     .324006000000D+06  .400000000000D+01
30 17 10 11 20  0  0.0  .135314185172D-03 -.238742359215D-11  .000000000000D+00
     .144000000000D+03  .646250000000D+02  .468233789531D-08 -.176779281098D+01
     .329688191414D-05  .305104302242D-02  .938959419727D-05  .515362377548D+04
     .331200000000D+06 -.726431608200D-07 -.170475452109D+01 -.130385160446D-07
     .946355480762D+00  .190343750000D+03 -.305329072522D+01 -.812212403335D-08
    -.205722854897D-09  .100000000000D+01  .197000000000D+04  .000000000000D+00
     .240000000000D+01  .000000000000D+00  .372529029846D-08  .144000000000D+03
     .324006000000D+06  .400000000000D+01
31 17 10 11 20  0  0.0  .169495586306D-03 -.250111042988D-11  .000000000000D+00
     .530000000000D+02  .824687500000D+02  .428624996809D-08 -.198885137466D+01
     .415183603764D-05  .856566987932D-02  .979937613010D-05  .515380421638D+04
     .331200000000D+06 -.104308128357D-06 -.173014255881D+01 -.130385160446D-06
     .965383681088D+00  .195625000000D+03 -.232651488720D+00 -.795425989828D-08
    -.190722230061D-09  .100000000000D+01  .197000000000D+04  .000000000000D+00
     .240000000000D+01  .000000000000D+00 -.135041773319D-07  .530000000000D+02
     .324006000000D+06  .400000000000D+01
32 17 10 11 20  0  0.0 -.511895865202D-03 -.454747350886D-11  .000000000000D+00
     .450000000000D+02  .740625000000D+01  .485770234280D-08  .168968111498D+01
     .396743416786D-06  .147971964907D-02  .810064375401D-05  .515359043694D+04
     .331200000000D+06 -.335276126862D-07 -.281625709904D+01  .800937414169D-07
     .957988862801D+00  .221968750000D+03 -.256574001732D+01 -.813426739632D-08
    -.328585115460D-09  .100000000000D+01  .197000000000D+04  .000000000000D+00
     .240000000000D+01  .000000000000D+00  .931322574615D-09  .450000000000D+02
     .324006000000D+06  .400000000000D+01
 4 17 10 11 20  0  0.0  .445852056146D-04  .852651282912D-11  .000000000000D+00
     .140000000000D+03 -.619687500000D+02  .468090926437D-08  .130796890794D+01
    -.322237610817D-05  .123995334143D-01  .446289777756D-05  .515366848564D+04
     .331200000000D+06 -.108033418655D-06  .238183767984D+00  .163912773132D-06
     .957415603723D+00  .292968750000D+03  .443657850736D+00 -.849071081504D-08
    -.215008955986D-09  .100000000000D+01  .197000000000D+04  .000000000000D+00
     .240000000000D+01  .630000000000D+02 -.558793544769D-08  .140000000000D+03
     .328776000000D+06  .400000000000D+01
13 17 10 11 19 59 44.0 -.926447100937D-04 -.454747350886D-12  .000000000000D+00
     .500000000000D+02  .706250000000D+01  .462019244956D-08 -.495393871075D+00
     .474974513054D-06  .353467219975D-02  .821240246296D-05  .515365708351D+04
     .331184000000D+06 -.372529029846D-08 -.269188410638D+01 -.689178705215D-07
     .969431796314D+00  .223187500000D+03  .172075999912D+01 -.812676708390D-08
    -.363586573412D-09  .100000000000D+01  .197000000000D+04  .000000000000D+00
     .240000000000D+01  .000000000000D+00 -.111758708954D-07  .500000000000D+02
     .329316000000D+06  .400000000000D+01
 9 17 10 11 19 59 44.0  .456390902400D-03  .557065504836D-11  .000000000000D+00
     .550000000000D+02  .828125000000D+01  .491913347308D-08  .127177235161D+01
     .316649675369D-06  .877425773069D-03  .791624188423D-05  .515375504875D+04
     .331184000000D+06  .111758708954D-07 -.282012922668D+01 -.316649675369D-07
     .953538927867D+00  .221968750000D+03  .181977065314D+01 -.814819654795D-08
    -.321799118511D-09  .100000000000D+01  .197000000000D+04  .000000000000D+00
     .240000000000D+01  .000000000000D+00  .931322574615D-09  .550000000000D+02
     .330186000000D+06  .400000000000D+01
 9 17 10 11 21 59 44.0  .456430949271D-03  .557065504836D-11  .000000000000D+00
     .740000000000D+02  .790625000000D+01  .497842165696D-08  .232215822207D+01
     .389292836189D-06  .877390149981D-03  .792928040028D-05  .515375465012D+04
     .338384000000D+06  .167638063431D-07 -.282018816765D+01 -.745058059692D-07
     .953536506737D+00  .220125000000D+03  .181951936770D+01 -.818784105645D-08
    -.302155443130D-09  .100000000000D+01  .197000000000D+04  .000000000000D+00
     .240000000000D+01  .000000000000D+00  .931322574615D-09  .740000000000D+02
     .331206000000D+06  .400000000000D+01
13 17 10 11 21 59 44.0 -.926479697227D-04 -.454747350886D-12  .000000000000D+00
     .136000000000D+03  .912500000000D+01  .467305179422D-08  .554805101357D+00
     .528991222382D-06  .353382073808D-02  .807084143162D-05  .515365546036D+04
     .338384000000D+06 -.558793544769D-07 -.269194304882D+01  .223517417908D-07
     .969429562438D+00  .228781250000D+03  .172075379196D+01 -.810748056625D-08
    -.272868508926D-09  .100000000000D+01  .197000000000D+04  .000000000000D+00
     .240000000000D+01  .000000000000D+00 -.111758708954D-07  .136000000000D+03
     .331206000000D+06  .400000000000D+01
 1 17 10 11 22  0  0.0 -.419048592448D-05 -.136424205266D-11  .000000000000D+00
     .940000000000D+02 -.725312500000D+02  .428124975981D-08 -.762026332541D-01
    -.368244946003D-05  .708707142621D-02  .101830810308D-04  .515368192482D+04
     .338400000000D+06  .689178705215D-07  .138513782638D+01  .987201929092D-07
     .968489088978D+00  .188968750000D+03  .630734319610D+00 -.800854787388D-08
     .266082511976D-09  .100000000000D+01  .197000000000D+04  .000000000000D+00
     .240000000000D+01  .000000000000D+00  .558793544769D-08  .940000000000D+02
     .331206000000D+06  .400000000000D+01
 2 17 10 11 22  0  0.0  .308732502162D-03 -.932232069317D-11  .000000000000D+00
     .143000000000D+03 -.629062500000D+02  .485020203038D-08  .340060958778D+00
    -.339187681675D-05  .171221013879D-01  .872649252415D-05  .515359906960D+04
     .338400000000D+06 -.299885869026D-06  .132881915225D+01  .104308128357D-06
     .947491424947D+00  .209125000000D+03 -.194920986862D+01 -.842963684250D-08
     .135362781260D-09  .100000000000D+01  .197000000000D+04  .000000000000D+00
     .240000000000D+01  .000000000000D+00 -.204890966415D-07  .143000000000D+03
     .331206000000D+06  .400000000000D+01
 3 17 10 11 22  0  0.0 -.571715645492D-04  .477484718431D-11  .000000000000D+00
     .102000000000D+03 -.125000000000D+00  .487020286350D-08 -.107776425357D+01
     .484287738800D-07  .105389126111D-02  .804103910923D-05  .515363410759D+04
     .338400000000D+06  .447034835815D-07  .242806026769D+01  .931322574615D-08
     .960272789525D+00  .224843750000D+03  .510796404492D+00 -.809998025383D-08
     .369301097159D-09  .100000000000D+01  .197000000000D+04  .000000000000D+00
     .240000000000D+01  .000000000000D+00  .232830643654D-08  .102000000000D+03
     .331206000000D+06  .400000000000D+01
 4 17 10 11 22  0  0.0  .446466729045D-04  .852651282912D-11  .000000000000D+00
     .141000000000D+03 -.599375000000D+02  .456626163170D-08  .235816405191D+01
    -.315159559250D-05  .123998686904D-01  .464543700218D-05  .515366808319D+04
     .338400000000D+06 -.277534127235D-06  .238122101598D+00 -.115483999252D-06
     .957415322843D+00  .289000000000D+03  .443648049185D+00 -.826820154664D-08
    -.521450291926D-10  .100000000000D+01  .197000000000D+04  .000000000000D+00
     .240000000000D+01  .630000000000D+02 -.558793544769D-08  .141000000000D+03
     .331206000000D+06  .400000000000D+01
 5 17 10 11 22  0  0.0 -.263550318778D-04  .125055521494D-11  .000000000000D+00
     .142000000000D+03 -.190625000000D+01  .506163940903D-08  .285956278770D+01
    -.447034835815D-07  .524780736305D-02  .848993659019D-05  .515356879807D+04
     .338400000000D+06 -.409781932831D-07  .240936541373D+01 -.100582838058D-06
     .947190575844D+00  .210468750000D+03  .602964240178D+00 -.810319467344D-08
     .325727853587D-09  .100000000000D+01  .197000000000D+04  .000000000000D+00
     .240000000000D+01  .000000000000D+00 -.107102096081D-07  .142000000000D+03
     .331206000000D+06  .400000000000D+01
